[{"icaoId":"KJFK","receiptTime":"2026-05-11T05:54:07.265Z","obsTime":1778478660,"reportTime":"2026-05-11T06:00:00.000Z","temp":13.9,"dewp":5,"wdir":20,"wspd":13,"wgst":24,"visib":"10+","altim":1017.4,"slp":1017.3,"qcField":12,"presTend":1.7,"maxT":17.2,"minT":13.9,"pcp6hr":0.05,"metarType":"METAR","rawOb":"METAR KJFK 110551Z 02013G24KT 10SM SCT030 BKN045 BKN075 OVC130 14/05 A3004 RMK AO2 SLP173 60005 T01390050 10172 20139 53017 $","lat":40.6392,"lon":-73.7639,"elev":3,"name":"New York/JF Kennedy Intl, NY, US","cover":"OVC","clouds":[{"cover":"SCT","base":3000},{"cover":"BKN","base":4500},{"cover":"BKN","base":7500},{"cover":"OVC","base":13000}],"fltCat":"VFR"},{"icaoId":"KJFK","receiptTime":"2026-05-11T04:54:08.414Z","obsTime":1778475060,"reportTime":"2026-05-11T05:00:00.000Z","temp":16.7,"dewp":14.4,"wdir":310,"wspd":3,"visib":"10+","altim":1016,"slp":1015.9,"qcField":12,"maxT24":18.3,"minT24":10.6,"metarType":"METAR","rawOb":"METAR KJFK 110451Z 31003KT 10SM BKN070 BKN090 OVC130 17/14 A3000 RMK AO2 SLP159 T01670144 401830106 $","lat":40.6392,"lon":-73.7639,"elev":3,"name":"New York/JF Kennedy Intl, NY, US","cover":"OVC","clouds":[{"cover":"BKN","base":7000},{"cover":"BKN","base":9000},{"cover":"OVC","base":13000}],"fltCat":"VFR"},{"icaoId":"KJFK","receiptTime":"2026-05-11T03:54:10.880Z","obsTime":1778471460,"reportTime":"2026-05-11T04:00:00.000Z","temp":16.1,"dewp":13.9,"wdir":280,"wspd":3,"visib":"10+","altim":1016,"slp":1015.7,"qcField":12,"precip":0.05,"metarType":"METAR","rawOb":"METAR KJFK 110351Z 28003KT 10SM BKN060 BKN085 OVC110 16/14 A3000 RMK AO2 RAB28E51 SLP157 P0005 T01610139 $","lat":40.6392,"lon":-73.7639,"elev":3,"name":"New York/JF Kennedy Intl, NY, US","cover":"OVC","clouds":[{"cover":"BKN","base":6000},{"cover":"BKN","base":8500},{"cover":"OVC","base":11000}],"fltCat":"VFR"},{"icaoId":"KJFK","receiptTime":"2026-05-11T02:54:09.857Z","obsTime":1778467860,"reportTime":"2026-05-11T03:00:00.000Z","temp":16.1,"dewp":13.3,"wdir":260,"wspd":6,"visib":"10+","altim":1016,"slp":1015.7,"qcField":12,"presTend":1.2,"pcp3hr":0.005,"metarType":"METAR","rawOb":"METAR KJFK 110251Z 26006KT 10SM BKN065 BKN085 OVC110 16/13 A3000 RMK AO2 SLP157 60000 T01610133 50012 $","lat":40.6392,"lon":-73.7639,"elev":3,"name":"New York/JF Kennedy Intl, NY, US","cover":"OVC","clouds":[{"cover":"BKN","base":6500},{"cover":"BKN","base":8500},{"cover":"OVC","base":11000}],"fltCat":"VFR"},{"icaoId":"KJFK","receiptTime":"2026-05-11T01:54:08.101Z","obsTime":1778464260,"reportTime":"2026-05-11T02:00:00.000Z","temp":16.1,"dewp":13.9,"wdir":210,"wspd":8,"visib":"10+","altim":1016,"slp":1015.8,"qcField":12,"precip":0.005,"metarType":"METAR","rawOb":"METAR KJFK 110151Z 21008KT 10SM BKN075 OVC090 16/14 A3000 RMK AO2 RAE10 SLP158 P0000 T01610139 $","lat":40.6392,"lon":-73.7639,"elev":3,"name":"New York/JF Kennedy Intl, NY, US","cover":"OVC","clouds":[{"cover":"BKN","base":7500},{"cover":"OVC","base":9000}],"fltCat":"VFR"},{"icaoId":"KJFK","receiptTime":"2026-05-11T00:54:09.146Z","obsTime":1778460660,"reportTime":"2026-05-11T01:00:00.000Z","temp":15,"dewp":13.3,"wdir":190,"wspd":7,"visib":"10+","altim":1015.7,"slp":1015.4,"qcField":12,"wxString":"-RA","precip":0.005,"metarType":"METAR","rawOb":"METAR KJFK 110051Z 19007KT 10SM -RA OVC090 15/13 A2999 RMK AO2 RAB24 SLP154 P0000 T01500133 $","lat":40.6392,"lon":-73.7639,"elev":3,"name":"New York/JF Kennedy Intl, NY, US","cover":"OVC","clouds":[{"cover":"OVC","base":9000}],"fltCat":"VFR"}]